IRIDIUM 166             
1 43570U 18061B   24060.95650991  .00000055  00000+0  12544-4 0  9990
2 43570  86.3948  47.0286 0002312  97.4089 262.7370 14.34218016293259
IRIDIUM 158             
1 43571U 18061C   24061.20386729  .00000174  00000+0  55237-4 0  9993
2 43571  86.3949  46.9342 0002461  89.7361 270.4116 14.34219640293263
IRIDIUM 165             
1 43572U 18061D   24060.95016647  .00000134  00000+0  40772-4 0  9998
2 43572  86.3950  47.0708 0002518  90.1400 270.0085 14.34218850293248
IRIDIUM 155             
1 43573U 18061E   24060.91210996 -.00000037  00000+0 -20162-4 0  9993
2 43573  86.3940  46.9975 0001957  91.8283 268.3136 14.34218705293207
IRIDIUM 154             
1 43574U 18061F   24060.89309087  .00000139  00000+0  42505-4 0  9997
2 43574  86.3949  47.0975 0002242  82.5285 277.6165 14.34213910293259
IRIDIUM 163             
1 43575U 18061G   24061.01359127  .00000122  00000+0  36646-4 0  9994
2 43575  86.3948  46.9888 0002157  85.7405 274.4037 14.34218788293244
IRIDIUM 156             
1 43576U 18061H   24061.19752774 -.00000006  00000+0 -91412-5 0  9995
2 43576  86.3944  46.9181 0002228  92.4751 267.6700 14.34217648293251
IRIDIUM 164             
1 43577U 18061J   24060.89942677  .00000108  00000+0  31392-4 0  9996
2 43577  86.3947  47.0698 0002471  87.4765 272.6714 14.34218393293269
